{"type": "FeatureCollection", "features": [ {"type": "Feature", "properties": {"norad_id": 41836, "name": "HIMAWARI-9", "group": "weather", "lat": -0.02068511290763898, "lon": -81.58264412489824, "alt_km": 35780.58108432097, "timestamp": "2025-12-13T03:42:10.924271+00:00", "meta": {"OBJECT_NAME": "HIMAWARI-9", "OBJECT_ID": "2016-064A", "EPOCH": "2025-12-11T21:01:46.862112", "MEAN_MOTION": 1.00273832, "ECCENTRICITY": 0.0001213, "INCLINATION": 0.0342, "RA_OF_ASC_NODE": 93.1676, "ARG_OF_PERICENTER": 175.9777, "MEAN_ANOMALY": 267.9081, "EPHEMERIS_TYPE": 0, "CLASSIFICATION_TYPE": "U", "NORAD_CAT_ID": 41836, "ELEMENT_SET_NO": 999, "REV_AT_EPOCH": 3333, "BSTAR": 0, "MEAN_MOTION_DOT": -2.66e-06, "MEAN_MOTION_DDOT": 0}, "tle": {"line1": "1 41836U 16064A   25345.87623683 -.00000266  00000+0  00000+0 0  9994", "line2": "2 41836   0.0342  93.1676 0001213 175.9777 267.9081  1.00273832 33336"}}, "geometry": {"type": "Point", "coordinates": [-81.58264412489824, -0.02068511290763898]}}, {"type": "Feature", "properties": {"norad_id": 41866, "name": "GOES 16", "group": "weather", "lat": -0.040830059517503736, "lon": 32.982419671518336, "alt_km": 35795.104884438224, "timestamp": "2025-12-13T03:42:10.924298+00:00", "meta": {"OBJECT_NAME": "GOES 16", "OBJECT_ID": "2016-071A", "EPOCH": "2025-12-12T06:08:00.873024", "MEAN_MOTION": 1.00271491, "ECCENTRICITY": 0.00032602, "INCLINATION": 0.0624, "RA_OF_ASC_NODE": 105.942, "ARG_OF_PERICENTER": 156.7296, "MEAN_ANOMALY": 165.8622, "EPHEMERIS_TYPE": 0, "CLASSIFICATION_TYPE": "U", "NORAD_CAT_ID": 41866, "ELEMENT_SET_NO": 999, "REV_AT_EPOCH": 3322, "BSTAR": 0, "MEAN_MOTION_DOT": -8.1e-07, "MEAN_MOTION_DDOT": 0}, "tle": {"line1": "1 41866U 16071A   25346.25556566 -.00000081  00000+0  00000+0 0  9998", "line2": "2 41866   0.0624 105.9420 0003260 156.7296 165.8622  1.00271491 33222"}}, "geometry": {"type": "Point", "coordinates": [32.982419671518336, -0.040830059517503736]}}, {"type": "Feature", "properties": {"norad_id": 41882, "name": "FENGYUN 4A", "group": "weather", "lat": 0.00992592713237546, "lon": -98.51156247535623, "alt_km": 35769.475048289096, "timestamp": "2025-12-13T03:42:10.924312+00:00", "meta": {"OBJECT_NAME": "FENGYUN 4A", "OBJECT_ID": "2016-077A", "EPOCH": "2025-12-12T07:13:17.123232", "MEAN_MOTION": 1.0026981, "ECCENTRICITY": 0.00048886, "INCLINATION": 1.8484, "RA_OF_ASC_NODE": 82.3931, "ARG_OF_PERICENTER": 145.6972, "MEAN_ANOMALY": 85.3126, "EPHEMERIS_TYPE": 0, "CLASSIFICATION_TYPE": "U", "NORAD_CAT_ID": 41882, "ELEMENT_SET_NO": 999, "REV_AT_EPOCH": 3305, "BSTAR": 0, "MEAN_MOTION_DOT": -3.47e-06, "MEAN_MOTION_DDOT": 0}, "tle": {"line1": "1 41882U 16077A   25346.30089263 -.00000347  00000+0  00000+0 0  9998", "line2": "2 41882   1.8484  82.3931 0004888 145.6972  85.3126  1.00269810 33051"}}, "geometry": {"type": "Point", "coordinates": [-98.51156247535623, 0.00992592713237546]}}, {"type": "Feature", "properties": {"norad_id": 41884, "name": "CYGFM05", "group": "weather", "lat": 13.538973164276726, "lon": -155.7374847976327, "alt_km": 414.74052515102267, "timestamp": "2025-12-13T03:42:10.924324+00:00", "meta": {"OBJECT_NAME": "CYGFM05", "OBJECT_ID": "2016-078A", "EPOCH": "2025-12-12T05:21:32.414976", "MEAN_MOTION": 15.4760679, "ECCENTRICITY": 0.0010052, "INCLINATION": 34.9602, "RA_OF_ASC_NODE": 50.5042, "ARG_OF_PERICENTER": 178.7379, "MEAN_ANOMALY": 181.3369, "EPHEMERIS_TYPE": 0, "CLASSIFICATION_TYPE": "U", "NORAD_CAT_ID": 41884, "ELEMENT_SET_NO": 999, "REV_AT_EPOCH": 49968, "BSTAR": 0.00050410393, "MEAN_MOTION_DOT": 0.00026884, "MEAN_MOTION_DDOT": 0}, "tle": {"line1": "1 41884U 16078A   25346.22329184  .00026884  00000+0  50410-3 0  9998", "line2": "2 41884  34.9602  50.5042 0010052 178.7379 181.3369 15.47606790499689"}}, "geometry": {"type": "Point", "coordinates": [-155.7374847976327, 13.538973164276726]}}, {"type": "Feature", "properties": {"norad_id": 41885, "name": "CYGFM04", "group": "weather", "lat": 21.223848047207493, "lon": 52.9925466238985, "alt_km": 417.72975019231944, "timestamp": "2025-12-13T03:42:10.924335+00:00", "meta": {"OBJECT_NAME": "CYGFM04", "OBJECT_ID": "2016-078B", "EPOCH": "2025-12-12T05:53:54.730176", "MEAN_MOTION": 15.50323569, "ECCENTRICITY": 0.00094005, "INCLINATION": 34.9354, "RA_OF_ASC_NODE": 25.1489, "ARG_OF_PERICENTER": 206.3964, "MEAN_ANOMALY": 153.628, "EPHEMERIS_TYPE": 0, "CLASSIFICATION_TYPE": "U", "NORAD_CAT_ID": 41885, "ELEMENT_SET_NO": 999, "REV_AT_EPOCH": 49986, "BSTAR": 0.00051410265, "MEAN_MOTION_DOT": 0.00030184, "MEAN_MOTION_DDOT": 0}, "tle": {"line1": "1 41885U 16078B   25346.24577234  .00030184  00000+0  51410-3 0  9991", "line2": "2 41885  34.9354  25.1489 0009400 206.3964 153.6280 15.50323569499868"}}, "geometry": {"type": "Point", "coordinates": [52.9925466238985, 21.223848047207493]}}, {"type": "Feature", "properties": {"norad_id": 41886, "name": "CYGFM02", "group": "weather", "lat": 27.709105538500758, "lon": 66.28817553106619, "alt_km": 413.3610545369802, "timestamp": "2025-12-13T03:42:10.924346+00:00", "meta": {"OBJECT_NAME": "CYGFM02", "OBJECT_ID": "2016-078C", "EPOCH": "2025-12-12T05:51:11.346048", "MEAN_MOTION": 15.51700404, "ECCENTRICITY": 0.00110763, "INCLINATION": 34.9444, "RA_OF_ASC_NODE": 23.4939, "ARG_OF_PERICENTER": 205.9628, "MEAN_ANOMALY": 154.054, "EPHEMERIS_TYPE": 0, "CLASSIFICATION_TYPE": "U", "NORAD_CAT_ID": 41886, "ELEMENT_SET_NO": 999, "REV_AT_EPOCH": 49999, "BSTAR": 0.00052311112, "MEAN_MOTION_DOT": 0.00032299, "MEAN_MOTION_DDOT": 0}, "tle": {"line1": "1 41886U 16078C   25346.24388132  .00032299  00000+0  52311-3 0  9999", "line2": "2 41886  34.9444  23.4939 0011076 205.9628 154.0540 15.51700404499990"}}, "geometry": {"type": "Point", "coordinates": [66.28817553106619, 27.709105538500758]}}, {"type": "Feature", "properties": {"norad_id": 41887, "name": "CYGFM01", "group": "weather", "lat": -11.864956100671174, "lon": -115.71841437008923, "alt_km": 416.1954765656592, "timestamp": "2025-12-13T03:42:10.924357+00:00", "meta": {"OBJECT_NAME": "CYGFM01", "OBJECT_ID": "2016-078D", "EPOCH": "2025-12-11T13:41:51.415872", "MEAN_MOTION": 15.48145499, "ECCENTRICITY": 0.00094988, "INCLINATION": 34.9432, "RA_OF_ASC_NODE": 57.1248, "ARG_OF_PERICENTER": 164.4483, "MEAN_ANOMALY": 195.6532, "EPHEMERIS_TYPE": 0, "CLASSIFICATION_TYPE": "U", "NORAD_CAT_ID": 41887, "ELEMENT_SET_NO": 999, "REV_AT_EPOCH": 49952, "BSTAR": 0.00051763933, "MEAN_MOTION_DOT": 0.00028132, "MEAN_MOTION_DDOT": 0}, "tle": {"line1": "1 41887U 16078D   25345.57073398  .00028132  00000+0  51764-3 0  9992", "line2": "2 41887  34.9432  57.1248 0009498 164.4483 195.6532 15.48145499499522"}}, "geometry": {"type": "Point", "coordinates": [-115.71841437008923, -11.864956100671174]}}, {"type": "Feature", "properties": {"norad_id": 41888, "name": "CYGFM08", "group": "weather", "lat": -32.8363197992031, "lon": -82.700563275542, "alt_km": 415.11394533146995, "timestamp": "2025-12-13T03:42:10.924368+00:00", "meta": {"OBJECT_NAME": "CYGFM08", "OBJECT_ID": "2016-078E", "EPOCH": "2025-12-12T06:31:18.182208", "MEAN_MOTION": 15.49390529, "ECCENTRICITY": 0.00114957, "INCLINATION": 34.9463, "RA_OF_ASC_NODE": 35.5385, "ARG_OF_PERICENTER": 195.0278, "MEAN_ANOMALY": 165.0104, "EPHEMERIS_TYPE": 0, "CLASSIFICATION_TYPE": "U", "NORAD_CAT_ID": 41888, "ELEMENT_SET_NO": 999, "REV_AT_EPOCH": 49986, "BSTAR": 0.00051630891, "MEAN_MOTION_DOT": 0.00029348, "MEAN_MOTION_DDOT": 0}, "tle": {"line1": "1 41888U 16078E   25346.27173822  .00029348  00000+0  51631-3 0  9997", "line2": "2 41888  34.9463  35.5385 0011495 195.0278 165.0104 15.49390529499861"}}, "geometry": {"type": "Point", "coordinates": [-82.700563275542, -32.8363197992031]}}, {"type": "Feature", "properties": {"norad_id": 41890, "name": "CYGFM07", "group": "weather", "lat": -29.6668898286099, "lon": -106.61276874167646, "alt_km": 412.1654525933509, "timestamp": "2025-12-13T03:42:10.924379+00:00", "meta": {"OBJECT_NAME": "CYGFM07", "OBJECT_ID": "2016-078G", "EPOCH": "2025-12-12T05:01:57.998784", "MEAN_MOTION": 15.4996816, "ECCENTRICITY": 0.00098228, "INCLINATION": 34.9485, "RA_OF_ASC_NODE": 24.9286, "ARG_OF_PERICENTER": 211.5002, "MEAN_ANOMALY": 148.5132, "EPHEMERIS_TYPE": 0, "CLASSIFICATION_TYPE": "U", "NORAD_CAT_ID": 41890, "ELEMENT_SET_NO": 999, "REV_AT_EPOCH": 49987, "BSTAR": 0.00052255047, "MEAN_MOTION_DOT": 0.000303, "MEAN_MOTION_DDOT": 0}, "tle": {"line1": "1 41890U 16078G   25346.20969906  .00030300  00000+0  52255-3 0  9992", "line2": "2 41890  34.9485  24.9286 0009822 211.5002 148.5132 15.49968160499870"}}, "geometry": {"type": "Point", "coordinates": [-106.61276874167646, -29.6668898286099]}}, {"type": "Feature", "properties": {"norad_id": 41891, "name": "CYGFM03", "group": "weather", "lat": 33.4292479933429, "lon": 91.6309402538608, "alt_km": 415.08115022131915, "timestamp": "2025-12-13T03:42:10.924390+00:00", "meta": {"OBJECT_NAME": "CYGFM03", "OBJECT_ID": "2016-078H", "EPOCH": "2025-12-12T05:44:30.487200", "MEAN_MOTION": 15.49868504, "ECCENTRICITY": 0.00092421, "INCLINATION": 34.9437, "RA_OF_ASC_NODE": 26.6529, "ARG_OF_PERICENTER": 199.483, "MEAN_ANOMALY": 160.5539, "EPHEMERIS_TYPE": 0, "CLASSIFICATION_TYPE": "U", "NORAD_CAT_ID": 41891, "ELEMENT_SET_NO": 999, "REV_AT_EPOCH": 49985, "BSTAR": 0.00051609525, "MEAN_MOTION_DOT": 0.00029811, "MEAN_MOTION_DDOT": 0}, "tle": {"line1": "1 41891U 16078H   25346.23924175  .00029811  00000+0  51610-3 0  9994", "line2": "2 41891  34.9437  26.6529 0009242 199.4830 160.5539 15.49868504499850"}}, "geometry": {"type": "Point", "coordinates": [91.6309402538608, 33.4292479933429]}}]}